start=new Date('2022-02-21T00:00:00.000Z').valueOf();
sats=[{"PERIOD":"95.591","GP_ID":"196489327","OBJECT_TYPE":"PAYLOAD","NORAD_CAT_ID":"45367","LAUNCH_DATE":"2020-03-18","OBJECT_ID":"2020-019H","REV_AT_EPOCH":"10699","BSTAR":"-0.00005682000000","ELEMENT_SET_NO":"999","TLE_LINE2":"2 45367  53.0540 320.6729 0001632  70.5286 289.5879 15.06422171106995","REF_FRAME":"TEME","TLE_LINE1":"1 45367U 20019H   22051.90312193 -.00001128  00000-0 -56820-4 0  9994","MEAN_MOTION":"15.06422171","FILE":"3310461","MEAN_ANOMALY":"289.5879","INCLINATION":"53.0540","APOAPSIS":"548.276","PERIAPSIS":"546.015","TIME_SYSTEM":"UTC","OBJECT_NAME":"STARLINK-1273","COUNTRY_CODE":"US","CLASSIFICATION_TYPE":"U","EPOCH":"2022-02-20T21:40:29.734752","ECCENTRICITY":"0.00016320","MEAN_ELEMENT_THEORY":"SGP4","EPHEMERIS_TYPE":"0","MEAN_MOTION_DOT":"-0.00001128","CENTER_NAME":"EARTH","MEAN_MOTION_DDOT":"0.0000000000000","SITE":"AFETR","DECAY_DATE":null,"SEMIMAJOR_AXIS":"6925.281","ARG_OF_PERICENTER":"70.5286","RCS_SIZE":"LARGE","RA_OF_ASC_NODE":"320.6729"},{"EPOCH":"2022-02-20T20:58:03.619200","MEAN_ELEMENT_THEORY":"SGP4","ECCENTRICITY":"0.00015100","EPHEMERIS_TYPE":"0","PERIAPSIS":"546.151","APOAPSIS":"548.242","TIME_SYSTEM":"UTC","OBJECT_NAME":"STARLINK-1276","COUNTRY_CODE":"US","CLASSIFICATION_TYPE":"U","SEMIMAJOR_AXIS":"6925.331","DECAY_DATE":null,"ARG_OF_PERICENTER":"93.9677","RA_OF_ASC_NODE":"320.7842","RCS_SIZE":"LARGE","MEAN_MOTION_DOT":"0.00000286","CENTER_NAME":"EARTH","SITE":"AFETR","MEAN_MOTION_DDOT":"0.0000000000000","OBJECT_TYPE":"PAYLOAD","NORAD_CAT_ID":"45368","LAUNCH_DATE":"2020-03-18","PERIOD":"95.592","GP_ID":"196488832","MEAN_MOTION":"15.06405612","TLE_LINE1":"1 45368U 20019J   22051.87365300  .00000286  00000-0  38118-4 0  9991","FILE":"3310461","MEAN_ANOMALY":"266.1484","INCLINATION":"53.0550","REV_AT_EPOCH":"10699","OBJECT_ID":"2020-019J","ELEMENT_SET_NO":"999","BSTAR":"0.00003811800000","TLE_LINE2":"2 45368  53.0550 320.7842 0001510  93.9677 266.1484 15.06405612106996","REF_FRAME":"TEME"},{"EPHEMERIS_TYPE":"0","ECCENTRICITY":"0.00020250","MEAN_ELEMENT_THEORY":"SGP4","EPOCH":"2022-02-20T17:45:34.413696","COUNTRY_CODE":"US","CLASSIFICATION_TYPE":"U","TIME_SYSTEM":"UTC","OBJECT_NAME":"STARLINK-1277","APOAPSIS":"548.615","PERIAPSIS":"545.810","RCS_SIZE":"LARGE","RA_OF_ASC_NODE":"321.4035","ARG_OF_PERICENTER":"79.0181","DECAY_DATE":null,"SEMIMAJOR_AXIS":"6925.348","MEAN_MOTION_DDOT":"0.0000000000000","SITE":"AFETR","CENTER_NAME":"EARTH","MEAN_MOTION_DOT":"-0.00004962","LAUNCH_DATE":"2020-03-18","NORAD_CAT_ID":"45369","OBJECT_TYPE":"PAYLOAD","GP_ID":"196511650","PERIOD":"95.592","INCLINATION":"53.0528","MEAN_ANOMALY":"281.1036","FILE":"3310556","TLE_LINE1":"1 45369U 20019K   22051.73998164 -.00004962  00000-0 -31439-3 0  9992","MEAN_MOTION":"15.06400260","REF_FRAME":"TEME","TLE_LINE2":"2 45369  53.0528 321.4035 0002025  79.0181 281.1036 15.06400260106973","BSTAR":"-0.00031439000000","ELEMENT_SET_NO":"999","OBJECT_ID":"2020-019K","REV_AT_EPOCH":"10697"},{"NORAD_CAT_ID":"45370","OBJECT_TYPE":"PAYLOAD","LAUNCH_DATE":"2020-03-18","PERIOD":"95.592","GP_ID":"196509925","MEAN_MOTION":"15.06402279","TLE_LINE1":"1 45370U 20019L   22051.72990362  .00002346  00000-0  17633-3 0  9997","MEAN_ANOMALY":"293.0712","INCLINATION":"53.0575","FILE":"3310556","BSTAR":"0.00017633000000","ELEMENT_SET_NO":"999","REV_AT_EPOCH":"10697","OBJECT_ID":"2020-019L","REF_FRAME":"TEME","TLE_LINE2":"2 45370  53.0575 321.4368 0001675  67.0454 293.0712 15.06402279106971","EPOCH":"2022-02-20T17:31:03.672768","EPHEMERIS_TYPE":"0","MEAN_ELEMENT_THEORY":"SGP4","ECCENTRICITY":"0.00016750","PERIAPSIS":"546.047","APOAPSIS":"548.367","CLASSIFICATION_TYPE":"U","COUNTRY_CODE":"US","OBJECT_NAME":"STARLINK-1281","TIME_SYSTEM":"UTC","SEMIMAJOR_AXIS":"6925.342","DECAY_DATE":null,"RA_OF_ASC_NODE":"321.4368","RCS_SIZE":"LARGE","ARG_OF_PERICENTER":"67.0454","CENTER_NAME":"EARTH","MEAN_MOTION_DOT":"0.00002346","SITE":"AFETR","MEAN_MOTION_DDOT":"0.0000000000000"},{"FILE":"3310462","MEAN_ANOMALY":"282.1591","INCLINATION":"53.0557","TLE_LINE1":"1 45371U 20019M   22051.89208378 -.00000808  00000-0 -35361-4 0  9997","MEAN_MOTION":"15.06391361","TLE_LINE2":"2 45371  53.0557 320.7077 0001578  77.9575 282.1591 15.06391361106992","REF_FRAME":"TEME","OBJECT_ID":"2020-019M","REV_AT_EPOCH":"10699","BSTAR":"-0.00003536100000","ELEMENT_SET_NO":"999","LAUNCH_DATE":"2020-03-18","OBJECT_TYPE":"PAYLOAD","NORAD_CAT_ID":"45371","GP_ID":"196488835","PERIOD":"95.593","ARG_OF_PERICENTER":"77.9575","RCS_SIZE":"LARGE","RA_OF_ASC_NODE":"320.7077","DECAY_DATE":null,"SEMIMAJOR_AXIS":"6925.375","MEAN_MOTION_DDOT":"0.0000000000000","SITE":"AFETR","MEAN_MOTION_DOT":"-0.00000808","CENTER_NAME":"EARTH","ECCENTRICITY":"0.00015780","MEAN_ELEMENT_THEORY":"SGP4","EPHEMERIS_TYPE":"0","EPOCH":"2022-02-20T21:24:36.038592","OBJECT_NAME":"STARLINK-1287","TIME_SYSTEM":"UTC","CLASSIFICATION_TYPE":"U","COUNTRY_CODE":"US","APOAPSIS":"548.333","PERIAPSIS":"546.147"},{"DECAY_DATE":null,"SEMIMAJOR_AXIS":"6925.325","RCS_SIZE":"LARGE","RA_OF_ASC_NODE":"321.2502","ARG_OF_PERICENTER":"63.6151","CENTER_NAME":"EARTH","MEAN_MOTION_DOT":"-0.00000565","MEAN_MOTION_DDOT":"0.0000000000000","SITE":"AFETR","EPOCH":"2022-02-20T18:34:44.614272","EPHEMERIS_TYPE":"0","ECCENTRICITY":"0.00015280","MEAN_ELEMENT_THEORY":"SGP4","APOAPSIS":"548.249","PERIAPSIS":"546.132","CLASSIFICATION_TYPE":"U","COUNTRY_CODE":"US","OBJECT_NAME":"STARLINK-1288","TIME_SYSTEM":"UTC","TLE_LINE1":"1 45372U 20019N   22051.77412748 -.00000565  00000-0 -19054-4 0  9994","MEAN_MOTION":"15.06407548","INCLINATION":"53.0562","MEAN_ANOMALY":"296.4995","FILE":"3310556","BSTAR":"-0.00001905400000","ELEMENT_SET_NO":"999","OBJECT_ID":"2020-019N","REV_AT_EPOCH":"10697","REF_FRAME":"TEME","TLE_LINE2":"2 45372  53.0562 321.2502 0001528  63.6151 296.4995 15.06407548106974","NORAD_CAT_ID":"45372","OBJECT_TYPE":"PAYLOAD","LAUNCH_DATE":"2020-03-18","PERIOD":"95.592","GP_ID":"196511429"},{"SEMIMAJOR_AXIS":"6925.327","DECAY_DATE":null,"ARG_OF_PERICENTER":"79.0369","RCS_SIZE":"LARGE","RA_OF_ASC_NODE":"320.7250","MEAN_MOTION_DOT":"0.00001959","CENTER_NAME":"EARTH","MEAN_MOTION_DDOT":"0.0000000000000","SITE":"AFETR","EPOCH":"2022-02-20T21:19:16.864032","ECCENTRICITY":"0.00016260","MEAN_ELEMENT_THEORY":"SGP4","EPHEMERIS_TYPE":"0","APOAPSIS":"548.318","PERIAPSIS":"546.066","TIME_SYSTEM":"UTC","OBJECT_NAME":"STARLINK-1295","COUNTRY_CODE":"US","CLASSIFICATION_TYPE":"U","TLE_LINE1":"1 45373U 20019P   22051.88838963  .00001959  00000-0  15035-3 0  9998","MEAN_MOTION":"15.06407155","FILE":"3310556","MEAN_ANOMALY":"281.0802","INCLINATION":"53.0542","OBJECT_ID":"2020-019P","REV_AT_EPOCH":"10699","ELEMENT_SET_NO":"999","BSTAR":"0.00015035000000","TLE_LINE2":"2 45373  53.0542 320.7250 0001626  79.0369 281.0802 15.06407155106991","REF_FRAME":"TEME","OBJECT_TYPE":"PAYLOAD","NORAD_CAT_ID":"45373","LAUNCH_DATE":"2020-03-18","PERIOD":"95.592","GP_ID":"196511150"},{"NORAD_CAT_ID":"45374","OBJECT_TYPE":"PAYLOAD","LAUNCH_DATE":"2020-03-18","PERIOD":"95.592","GP_ID":"196488884","TLE_LINE1":"1 45374U 20019Q   22051.88470356  .00000887  00000-0  78457-4 0  9994","MEAN_MOTION":"15.06404916","INCLINATION":"53.0543","MEAN_ANOMALY":"274.6213","FILE":"3310464","ELEMENT_SET_NO":"999","BSTAR":"0.00007845700000","OBJECT_ID":"2020-019Q","REV_AT_EPOCH":"10699","REF_FRAME":"TEME","TLE_LINE2":"2 45374  53.0543 320.7446 0001453  85.4942 274.6213 15.06404916106992","EPOCH":"2022-02-20T21:13:58.387584","EPHEMERIS_TYPE":"0","ECCENTRICITY":"0.00014530","MEAN_ELEMENT_THEORY":"SGP4","APOAPSIS":"548.205","PERIAPSIS":"546.192","CLASSIFICATION_TYPE":"U","COUNTRY_CODE":"US","OBJECT_NAME":"STARLINK-1300","TIME_SYSTEM":"UTC","SEMIMAJOR_AXIS":"6925.333","DECAY_DATE":null,"RCS_SIZE":"LARGE","RA_OF_ASC_NODE":"320.7446","ARG_OF_PERICENTER":"85.4942","CENTER_NAME":"EARTH","MEAN_MOTION_DOT":"0.00000887","MEAN_MOTION_DDOT":"0.0000000000000","SITE":"AFETR"},{"APOAPSIS":"548.278","PERIAPSIS":"546.123","CLASSIFICATION_TYPE":"U","COUNTRY_CODE":"US","OBJECT_NAME":"STARLINK-1302","TIME_SYSTEM":"UTC","EPOCH":"2022-02-20T21:35:12.366816","EPHEMERIS_TYPE":"0","ECCENTRICITY":"0.00015560","MEAN_ELEMENT_THEORY":"SGP4","CENTER_NAME":"EARTH","MEAN_MOTION_DOT":"0.00001111","MEAN_MOTION_DDOT":"0.0000000000000","SITE":"AFETR","DECAY_DATE":null,"SEMIMAJOR_AXIS":"6925.336","RCS_SIZE":"LARGE","RA_OF_ASC_NODE":"320.6889","ARG_OF_PERICENTER":"74.4448","PERIOD":"95.592","GP_ID":"196488881","NORAD_CAT_ID":"45375","OBJECT_TYPE":"PAYLOAD","LAUNCH_DATE":"2020-03-18","BSTAR":"0.00009348000000","ELEMENT_SET_NO":"999","OBJECT_ID":"2020-019R","REV_AT_EPOCH":"10699","REF_FRAME":"TEME","TLE_LINE2":"2 45375  53.0530 320.6889 0001556  74.4448 285.6713 15.06404155106994","TLE_LINE1":"1 45375U 20019R   22051.89944869  .00001111  00000-0  93480-4 0  9995","MEAN_MOTION":"15.06404155","INCLINATION":"53.0530","MEAN_ANOMALY":"285.6713","FILE":"3310464"},{"LAUNCH_DATE":"2020-03-18","NORAD_CAT_ID":"45376","OBJECT_TYPE":"PAYLOAD","GP_ID":"196510929","PERIOD":"95.592","MEAN_ANOMALY":"291.8889","INCLINATION":"53.0550","FILE":"3310556","MEAN_MOTION":"15.06399751","TLE_LINE1":"1 45376U 20019S   22051.91789727  .00006255  00000-0  43842-3 0  9999","REF_FRAME":"TEME","TLE_LINE2":"2 45376  53.0550 320.6045 0001557  68.2266 291.8889 15.06399751106999","ELEMENT_SET_NO":"999","BSTAR":"0.00043842000000","REV_AT_EPOCH":"10699","OBJECT_ID":"2020-019S","EPHEMERIS_TYPE":"0","MEAN_ELEMENT_THEORY":"SGP4","ECCENTRICITY":"0.00015570","EPOCH":"2022-02-20T22:01:46.324128","COUNTRY_CODE":"US","CLASSIFICATION_TYPE":"U","OBJECT_NAME":"STARLINK-1304","TIME_SYSTEM":"UTC","PERIAPSIS":"546.136","APOAPSIS":"548.293","RA_OF_ASC_NODE":"320.6045","RCS_SIZE":"LARGE","ARG_OF_PERICENTER":"68.2266","DECAY_DATE":null,"SEMIMAJOR_AXIS":"6925.349","SITE":"AFETR","MEAN_MOTION_DDOT":"0.0000000000000","CENTER_NAME":"EARTH","MEAN_MOTION_DOT":"0.00006255"}];
